SOYUZ-MS 28             
1 66664U 25275A   25362.53357480  .00015441  00000+0  27889-3 0  9993
2 66664  51.6321  64.2558 0003250 314.4858  45.5864 15.49907133  1286
1998-067XS              
1 66906U 98067XS  25362.19312282  .00034866  00000+0  58581-3 0  9999
2 66906  51.6324  65.7333 0002613 281.7047  78.3649 15.51427236  4016
1998-067XT              
1 66907U 98067XT  25362.43359425  .00082646  00000+0  12721-2 0  9991
2 66907  51.6317  64.3388 0003865 323.2594  36.8131 15.53480441  4051
1998-067XU              
1 66908U 98067XU  25362.56106887  .00067446  00000+0  10405-2 0  9996
2 66908  51.6312  63.6893 0003932 320.8494  39.2212 15.53505635  4079
SILVERSAT               
1 66909U 98067XV  25362.49447709  .00087215  00000+0  13227-2 0  9991
2 66909  51.6306  63.9946 0003919 327.2243  32.8503 15.53863382  4060
1998-067XW              
1 66910U 98067XW  25362.42873099  .00080298  00000+0  12260-2 0  9991
2 66910  51.6307  64.3052 0003649 295.6373  64.4240 15.53717016  4058
1998-067XX              
1 66911U 98067XX  25362.35940124  .00100367  00000+0  14928-2 0  9991
2 66911  51.6310  64.5939 0003380 306.9816  53.0865 15.54336022  4039
1998-067XY              
1 66912U 98067XY  25362.37544862  .00062303  00000+0  99000-3 0  9995
2 66912  51.6317  64.7007 0003839 312.2121  47.8542 15.52721713  4039
